[{"OBJECT_NAME":"ONEWEB-0224","OBJECT_ID":"2021-045AD","EPOCH":"2025-12-13T06:46:23.672352","MEAN_MOTION":13.15549389,"ECCENTRICITY":0.00016681,"INCLINATION":87.8994,"RA_OF_ASC_NODE":296.3282,"ARG_OF_PERICENTER":47.938,"MEAN_ANOMALY":312.1892,"EPHEMERIS_TYPE":0,"CLASSIFICATION_TYPE":"U","NORAD_CAT_ID":48794,"ELEMENT_SET_NO":999,"REV_AT_EPOCH":21983,"BSTAR":-0.0004833797,"MEAN_MOTION_DOT":-1.69e-6,"MEAN_MOTION_DDOT":0},{"OBJECT_NAME":"ONEWEB-0233","OBJECT_ID":"2021-045AE","EPOCH":"2025-12-13T06:53:01.954752","MEAN_MOTION":13.15550203,"ECCENTRICITY":0.00019646,"INCLINATION":87.8993,"RA_OF_ASC_NODE":296.338,"ARG_OF_PERICENTER":69.5004,"MEAN_ANOMALY":290.6337,"EPHEMERIS_TYPE":0,"CLASSIFICATION_TYPE":"U","NORAD_CAT_ID":48795,"ELEMENT_SET_NO":999,"REV_AT_EPOCH":21985,"BSTAR":0.00011983107,"MEAN_MOTION_DOT":5.8e-7,"MEAN_MOTION_DDOT":0},{"OBJECT_NAME":"ONEWEB-0190","OBJECT_ID":"2021-045AF","EPOCH":"2025-12-13T06:34:59.685888","MEAN_MOTION":13.15549376,"ECCENTRICITY":0.00024738,"INCLINATION":87.8987,"RA_OF_ASC_NODE":296.3021,"ARG_OF_PERICENTER":66.8527,"MEAN_ANOMALY":293.2864,"EPHEMERIS_TYPE":0,"CLASSIFICATION_TYPE":"U","NORAD_CAT_ID":48796,"ELEMENT_SET_NO":999,"REV_AT_EPOCH":21992,"BSTAR":-1.7476678e-5,"MEAN_MOTION_DOT":6.0e-8,"MEAN_MOTION_DDOT":0},{"OBJECT_NAME":"ONEWEB-0236","OBJECT_ID":"2021-045AG","EPOCH":"2025-12-13T07:00:04.788576","MEAN_MOTION":13.15549797,"ECCENTRICITY":0.00016528,"INCLINATION":87.899,"RA_OF_ASC_NODE":296.31,"ARG_OF_PERICENTER":78.6965,"MEAN_ANOMALY":281.4351,"EPHEMERIS_TYPE":0,"CLASSIFICATION_TYPE":"U","NORAD_CAT_ID":48797,"ELEMENT_SET_NO":999,"REV_AT_EPOCH":21981,"BSTAR":0.00029148139,"MEAN_MOTION_DOT":1.23e-6,"MEAN_MOTION_DDOT":0},{"OBJECT_NAME":"ONEWEB-0248","OBJECT_ID":"2021-045AH","EPOCH":"2025-12-13T07:18:19.489536","MEAN_MOTION":13.15550468,"ECCENTRICITY":0.00019897,"INCLINATION":87.9001,"RA_OF_ASC_NODE":296.2713,"ARG_OF_PERICENTER":61.0773,"MEAN_ANOMALY":299.0557,"EPHEMERIS_TYPE":0,"CLASSIFICATION_TYPE":"U","NORAD_CAT_ID":48798,"ELEMENT_SET_NO":999,"REV_AT_EPOCH":21997,"BSTAR":0.00032368085,"MEAN_MOTION_DOT":1.35e-6,"MEAN_MOTION_DDOT":0},{"OBJECT_NAME":"ONEWEB-0225","OBJECT_ID":"2021-045AJ","EPOCH":"2025-12-13T06:00:45.194976","MEAN_MOTION":13.15550618,"ECCENTRICITY":0.00022941,"INCLINATION":87.899,"RA_OF_ASC_NODE":296.3059,"ARG_OF_PERICENTER":67.8288,"MEAN_ANOMALY":292.3085,"EPHEMERIS_TYPE":0,"CLASSIFICATION_TYPE":"U","NORAD_CAT_ID":48799,"ELEMENT_SET_NO":999,"REV_AT_EPOCH":21997,"BSTAR":0.00041291697,"MEAN_MOTION_DOT":1.68e-6,"MEAN_MOTION_DDOT":0},{"OBJECT_NAME":"ONEWEB-0215","OBJECT_ID":"2021-045AK","EPOCH":"2025-12-13T07:06:55.497888","MEAN_MOTION":13.15551021,"ECCENTRICITY":0.00022671,"INCLINATION":87.9008,"RA_OF_ASC_NODE":296.2578,"ARG_OF_PERICENTER":63.0757,"MEAN_ANOMALY":297.0605,"EPHEMERIS_TYPE":0,"CLASSIFICATION_TYPE":"U","NORAD_CAT_ID":48800,"ELEMENT_SET_NO":999,"REV_AT_EPOCH":21985,"BSTAR":0.00030920423,"MEAN_MOTION_DOT":1.29e-6,"MEAN_MOTION_DDOT":0},{"OBJECT_NAME":"ONEWEB-0216","OBJECT_ID":"2021-045AL","EPOCH":"2025-12-13T07:20:37.673376","MEAN_MOTION":13.15549592,"ECCENTRICITY":0.0001981,"INCLINATION":87.8992,"RA_OF_ASC_NODE":296.2867,"ARG_OF_PERICENTER":81.3945,"MEAN_ANOMALY":278.741,"EPHEMERIS_TYPE":0,"CLASSIFICATION_TYPE":"U","NORAD_CAT_ID":48801,"ELEMENT_SET_NO":999,"REV_AT_EPOCH":21986,"BSTAR":0.00048348746,"MEAN_MOTION_DOT":1.95e-6,"MEAN_MOTION_DDOT":0},{"OBJECT_NAME":"ONEWEB-0239","OBJECT_ID":"2021-045AM","EPOCH":"2025-12-13T07:27:26.974368","MEAN_MOTION":13.15551139,"ECCENTRICITY":0.00021066,"INCLINATION":87.899,"RA_OF_ASC_NODE":296.3003,"ARG_OF_PERICENTER":56.1838,"MEAN_ANOMALY":303.9493,"EPHEMERIS_TYPE":0,"CLASSIFICATION_TYPE":"U","NORAD_CAT_ID":48802,"ELEMENT_SET_NO":999,"REV_AT_EPOCH":21990,"BSTAR":0.00060340715,"MEAN_MOTION_DOT":2.4e-6,"MEAN_MOTION_DDOT":0},{"OBJECT_NAME":"ONEWEB-0249","OBJECT_ID":"2021-060A","EPOCH":"2025-12-13T07:34:21.759168","MEAN_MOTION":13.16595785,"ECCENTRICITY":0.00018197,"INCLINATION":87.9042,"RA_OF_ASC_NODE":265.7894,"ARG_OF_PERICENTER":70.9076,"MEAN_ANOMALY":289.2252,"EPHEMERIS_TYPE":0,"CLASSIFICATION_TYPE":"U","NORAD_CAT_ID":48967,"ELEMENT_SET_NO":999,"REV_AT_EPOCH":21515,"BSTAR":5.114623e-6,"MEAN_MOTION_DOT":1.5e-7,"MEAN_MOTION_DDOT":0},{"OBJECT_NAME":"ONEWEB-0250","OBJECT_ID":"2021-060B","EPOCH":"2025-12-13T06:41:15.830016","MEAN_MOTION":13.25820881,"ECCENTRICITY":0.00012926,"INCLINATION":87.9042,"RA_OF_ASC_NODE":264.1607,"ARG_OF_PERICENTER":37.469,"MEAN_ANOMALY":322.6536,"EPHEMERIS_TYPE":0,"CLASSIFICATION_TYPE":"U","NORAD_CAT_ID":48968,"ELEMENT_SET_NO":999,"REV_AT_EPOCH":21558,"BSTAR":5.2775543e-5,"MEAN_MOTION_DOT":3.6e-7,"MEAN_MOTION_DDOT":0},{"OBJECT_NAME":"ONEWEB-0252","OBJECT_ID":"2021-060D","EPOCH":"2025-12-13T06:30:31.180608","MEAN_MOTION":13.16593721,"ECCENTRICITY":0.0001922,"INCLINATION":87.9047,"RA_OF_ASC_NODE":265.7915,"ARG_OF_PERICENTER":78.1645,"MEAN_ANOMALY":281.9701,"EPHEMERIS_TYPE":0,"CLASSIFICATION_TYPE":"U","NORAD_CAT_ID":48970,"ELEMENT_SET_NO":999,"REV_AT_EPOCH":21519,"BSTAR":0.00014852862,"MEAN_MOTION_DOT":7.0e-7,"MEAN_MOTION_DDOT":0},{"OBJECT_NAME":"ONEWEB-0253","OBJECT_ID":"2021-060E","EPOCH":"2025-12-13T06:14:32.874144","MEAN_MOTION":13.16597126,"ECCENTRICITY":0.00018749,"INCLINATION":87.905,"RA_OF_ASC_NODE":265.798,"ARG_OF_PERICENTER":70.0633,"MEAN_ANOMALY":290.0699,"EPHEMERIS_TYPE":0,"CLASSIFICATION_TYPE":"U","NORAD_CAT_ID":48971,"ELEMENT_SET_NO":999,"REV_AT_EPOCH":21512,"BSTAR":3.8286508e-5,"MEAN_MOTION_DOT":2.7e-7,"MEAN_MOTION_DDOT":0},{"OBJECT_NAME":"ONEWEB-0254","OBJECT_ID":"2021-060F","EPOCH":"2025-12-13T06:28:13.401984","MEAN_MOTION":13.16595121,"ECCENTRICITY":0.00018352,"INCLINATION":87.9053,"RA_OF_ASC_NODE":265.7877,"ARG_OF_PERICENTER":64.0945,"MEAN_ANOMALY":296.0375,"EPHEMERIS_TYPE":0,"CLASSIFICATION_TYPE":"U","NORAD_CAT_ID":48972,"ELEMENT_SET_NO":999,"REV_AT_EPOCH":21512,"BSTAR":-0.00078286401,"MEAN_MOTION_DOT":-2.86e-6,"MEAN_MOTION_DDOT":0},{"OBJECT_NAME":"ONEWEB-0255","OBJECT_ID":"2021-060G","EPOCH":"2025-12-13T07:22:56.694432","MEAN_MOTION":13.16595395,"ECCENTRICITY":0.00018505,"INCLINATION":87.9045,"RA_OF_ASC_NODE":265.7959,"ARG_OF_PERICENTER":64.4067,"MEAN_ANOMALY":295.7255,"EPHEMERIS_TYPE":0,"CLASSIFICATION_TYPE":"U","NORAD_CAT_ID":48973,"ELEMENT_SET_NO":999,"REV_AT_EPOCH":21520,"BSTAR":0.00014389328,"MEAN_MOTION_DOT":6.8e-7,"MEAN_MOTION_DDOT":0},{"OBJECT_NAME":"ONEWEB-0256","OBJECT_ID":"2021-060H","EPOCH":"2025-12-13T06:11:09.503232","MEAN_MOTION":13.16595377,"ECCENTRICITY":0.00017309,"INCLINATION":87.9038,"RA_OF_ASC_NODE":265.8146,"ARG_OF_PERICENTER":77.6252,"MEAN_ANOMALY":282.5073,"EPHEMERIS_TYPE":0,"CLASSIFICATION_TYPE":"U","NORAD_CAT_ID":48974,"ELEMENT_SET_NO":999,"REV_AT_EPOCH":21516,"BSTAR":-6.3398777e-5,"MEAN_MOTION_DOT":-1.1e-7,"MEAN_MOTION_DDOT":0},{"OBJECT_NAME":"ONEWEB-0257","OBJECT_ID":"2021-060J","EPOCH":"2025-12-13T06:57:52.704576","MEAN_MOTION":13.16595741,"ECCENTRICITY":0.0001855,"INCLINATION":87.9047,"RA_OF_ASC_NODE":265.7865,"ARG_OF_PERICENTER":71.5128,"MEAN_ANOMALY":288.6204,"EPHEMERIS_TYPE":0,"CLASSIFICATION_TYPE":"U","NORAD_CAT_ID":48975,"ELEMENT_SET_NO":999,"REV_AT_EPOCH":21512,"BSTAR":0.00022882813,"MEAN_MOTION_DOT":1.0e-6,"MEAN_MOTION_DDOT":0},{"OBJECT_NAME":"ONEWEB-0258","OBJECT_ID":"2021-060K","EPOCH":"2025-12-13T07:00:09.772992","MEAN_MOTION":13.1659582,"ECCENTRICITY":0.00016107,"INCLINATION":87.904,"RA_OF_ASC_NODE":265.8014,"ARG_OF_PERICENTER":71.7178,"MEAN_ANOMALY":288.4128,"EPHEMERIS_TYPE":0,"CLASSIFICATION_TYPE":"U","NORAD_CAT_ID":48976,"ELEMENT_SET_NO":999,"REV_AT_EPOCH":21513,"BSTAR":0.00018189383,"MEAN_MOTION_DOT":8.2e-7,"MEAN_MOTION_DDOT":0},{"OBJECT_NAME":"ONEWEB-0259","OBJECT_ID":"2021-060L","EPOCH":"2025-12-13T06:51:02.403936","MEAN_MOTION":13.16595724,"ECCENTRICITY":0.0001797,"INCLINATION":87.9048,"RA_OF_ASC_NODE":265.7968,"ARG_OF_PERICENTER":68.7331,"MEAN_ANOMALY":291.3991,"EPHEMERIS_TYPE":0,"CLASSIFICATION_TYPE":"U","NORAD_CAT_ID":48977,"ELEMENT_SET_NO":999,"REV_AT_EPOCH":21516,"BSTAR":0.00010802482,"MEAN_MOTION_DOT":5.4e-7,"MEAN_MOTION_DDOT":0},{"OBJECT_NAME":"ONEWEB-0260","OBJECT_ID":"2021-060M","EPOCH":"2025-12-13T06:38:31.080768","MEAN_MOTION":13.16594384,"ECCENTRICITY":0.00019838,"INCLINATION":87.9037,"RA_OF_ASC_NODE":265.8125,"ARG_OF_PERICENTER":83.904,"MEAN_ANOMALY":276.2317,"EPHEMERIS_TYPE":0,"CLASSIFICATION_TYPE":"U","NORAD_CAT_ID":48978,"ELEMENT_SET_NO":999,"REV_AT_EPOCH":21514,"BSTAR":-0.00017841081,"MEAN_MOTION_DOT":-5.5e-7,"MEAN_MOTION_DDOT":0},{"OBJECT_NAME":"ONEWEB-0261","OBJECT_ID":"2021-060N","EPOCH":"2025-12-13T05:55:11.304768","MEAN_MOTION":13.16593686,"ECCENTRICITY":0.00021143,"INCLINATION":87.9035,"RA_OF_ASC_NODE":265.8203,"ARG_OF_PERICENTER":69.1433,"MEAN_ANOMALY":290.9924,"EPHEMERIS_TYPE":0,"CLASSIFICATION_TYPE":"U","NORAD_CAT_ID":48979,"ELEMENT_SET_NO":999,"REV_AT_EPOCH":21519,"BSTAR":5.391757e-5,"MEAN_MOTION_DOT":3.3e-7,"MEAN_MOTION_DDOT":0},{"OBJECT_NAME":"ONEWEB-0262","OBJECT_ID":"2021-060P","EPOCH":"2025-12-13T07:16:07.173984","MEAN_MOTION":13.16595455,"ECCENTRICITY":0.00016576,"INCLINATION":87.9046,"RA_OF_ASC_NODE":265.7824,"ARG_OF_PERICENTER":62.29,"MEAN_ANOMALY":297.8399,"EPHEMERIS_TYPE":0,"CLASSIFICATION_TYPE":"U","NORAD_CAT_ID":48980,"ELEMENT_SET_NO":999,"REV_AT_EPOCH":21516,"BSTAR":0.0003050797,"MEAN_MOTION_DOT":1.29e-6,"MEAN_MOTION_DDOT":0},{"OBJECT_NAME":"ONEWEB-0263","OBJECT_ID":"2021-060Q","EPOCH":"2025-12-13T06:12:16.668864","MEAN_MOTION":13.16596296,"ECCENTRICITY":0.00020281,"INCLINATION":87.9043,"RA_OF_ASC_NODE":265.8056,"ARG_OF_PERICENTER":65.6844,"MEAN_ANOMALY":294.4499,"EPHEMERIS_TYPE":0,"CLASSIFICATION_TYPE":"U","NORAD_CAT_ID":48981,"ELEMENT_SET_NO":999,"REV_AT_EPOCH":21512,"BSTAR":8.6424424e-5,"MEAN_MOTION_DOT":4.6e-7,"MEAN_MOTION_DDOT":0}]
